NORAD_CAT_ID,OBJECT_NAME,OBJECT_TYPE,EPOCH,MEAN_MOTION,ECCENTRICITY,INCLINATION,RA_OF_ASC_NODE,ARG_OF_PERICENTER,MEAN_ANOMALY,BSTAR,MEAN_MOTION_DOT,MEAN_MOTION_DDOT,TLE_LINE0,TLE_LINE1,TLE_LINE2,SEMIMAJOR_AXIS,PERIOD,APOGEE,PERIGEE,DECAYED
52576.0,STARLINK-3932,PAYLOAD,2024-01-28 05:55:38,15.08845342,0.0001754,53.2188,342.2586,102.6429,257.476,0.00011254,1.504e-05,0.0,0 STARLINK-3932,1 52576U 22051AS  24028.24697079  .00001504  00000-0  11254-3 0  9991,2 52576  53.2188 342.2586 0001754 102.6429 257.4760 15.08845342 95123,6917.864,95.437,540.942,538.516,0.0
52576.0,STARLINK-3932,PAYLOAD,2024-01-29 04:11:02,15.08844159,0.0001818,53.2194,338.0989,88.6831,271.4369,0.00010046,1.311e-05,0.0,0 STARLINK-3932,1 52576U 22051AS  24029.17433438  .00001311  00000-0  10046-3 0  9995,2 52576  53.2194 338.0989 0001818  88.6831 271.4369 15.08844159 95330,6917.868,95.437,540.99,538.475,0.0
52576.0,STARLINK-3932,PAYLOAD,2024-01-29 20:04:54,15.08841683,0.0001954,53.22,335.1321,89.1235,270.9981,7.5849e-05,9.19e-06,0.0,0 STARLINK-3932,1 52576U 22051AS  24029.83673657  .00000919  00000-0  75849-4 0  9993,2 52576  53.2200 335.1321 0001954  89.1235 270.9981 15.08841683 95367,6917.875,95.437,541.092,538.388,0.0
52576.0,STARLINK-3932,PAYLOAD,2024-01-30 05:37:12,15.08849069,0.0001828,53.2185,333.3423,107.7878,252.3314,8.6244e-05,1.085e-05,0.0,0 STARLINK-3932,1 52576U 22051AS  24030.23416860  .00001085  00000-0  86244-4 0  9996,2 52576  53.2185 333.3423 0001828 107.7878 252.3314 15.08849069 95496,6917.853,95.437,540.982,538.453,0.0
52576.0,STARLINK-3932,PAYLOAD,2024-01-31 02:17:13,15.08846978,0.0001788,53.2193,329.4762,99.6888,260.4306,-1.9166e-05,-5.93e-06,0.0,0 STARLINK-3932,1 52576U 22051AS  24031.09529151 -.00000593  00000-0 -19166-4 0  9993,2 52576  53.2193 329.4762 0001788  99.6888 260.4306 15.08846978 95624,6917.859,95.437,540.961,538.487,0.0
52576.0,STARLINK-3932,PAYLOAD,2024-01-31 19:46:28,15.08839069,0.0001906,53.2185,326.2054,101.8212,258.2994,-1.7686e-05,-5.7e-06,0.0,0 STARLINK-3932,1 52576U 22051AS  24031.82393627 -.00000570  00000-0 -17686-4 0  9991,2 52576  53.2185 326.2054 0001906 101.8212 258.2994 15.08839069 95736,6917.883,95.438,541.067,538.43,0.0
52576.0,STARLINK-3932,PAYLOAD,2024-02-01 02:08:00,15.08837311,0.000183,53.219,325.0159,105.1708,254.9487,-4.0993e-05,-9.4e-06,0.0,0 STARLINK-3932,1 52576U 22051AS  24032.08889771 -.00000940  00000-0 -40993-4 0  9998,2 52576  53.2190 325.0159 0001830 105.1708 254.9487 15.08837311 95703,6917.889,95.438,541.02,538.488,0.0
52576.0,STARLINK-3932,PAYLOAD,2024-02-01 19:37:15,15.08820304,0.0001779,53.2186,321.7452,101.7387,258.3805,0.00022642,3.315e-05,0.0,0 STARLINK-3932,1 52576U 22051AS  24032.81753693  .00003315  00000-0  22642-3 0  9999,2 52576  53.2186 321.7452 0001779 101.7387 258.3805 15.08820304 95812,6917.941,95.439,541.036,538.575,0.0
52576.0,STARLINK-3932,PAYLOAD,2024-02-02 01:58:47,15.088443,0.0001647,53.2195,320.5565,94.2646,265.8534,1.5793e-05,-3.7e-07,0.0,0 STARLINK-3932,1 52576U 22051AS  24033.08249337 -.00000037  00000-0  15793-4 0  9993,2 52576  53.2195 320.5565 0001647  94.2646 265.8534 15.08844300 95928,6917.867,95.437,540.872,538.593,0.0
52576.0,STARLINK-3932,PAYLOAD,2024-02-02 19:28:02,15.08833745,0.0001814,53.2202,317.2859,82.6926,277.4272,4.8748e-05,4.88e-06,0.0,0 STARLINK-3932,1 52576U 22051AS  24033.81114124  .00000488  00000-0  48748-4 0  9994,2 52576  53.2202 317.2859 0001814  82.6926 277.4272 15.08833745 96036,6917.9,95.438,541.019,538.51,0.0
52576.0,STARLINK-3932,PAYLOAD,2024-02-02 22:38:48,15.0883216,0.0001689,53.2196,316.6925,96.8039,263.3146,3.7531e-05,3.09e-06,0.0,0 STARLINK-3932,1 52576U 22051AS  24033.94362217  .00000309  00000-0  37531-4 0  9996,2 52576  53.2196 316.6925 0001689  96.8039 263.3146 15.08832160 95984,6917.904,95.438,540.938,538.601,0.0
52576.0,STARLINK-3932,PAYLOAD,2024-02-03 01:49:35,15.0883198,0.0001633,53.2195,316.0982,93.0348,267.0831,3.3548e-05,2.46e-06,0.0,0 STARLINK-3932,1 52576U 22051AS  24034.07610317  .00000246  00000-0  33548-4 0  9992,2 52576  53.2195 316.0982 0001633  93.0348 267.0831 15.08831980 96006,6917.905,95.438,540.9,538.64,0.0
52576.0,STARLINK-3932,PAYLOAD,2024-02-03 19:18:51,15.08824828,0.0001615,53.2199,312.8299,99.3904,260.7271,-7.6108e-05,-1.499e-05,0.0,0 STARLINK-3932,1 52576U 22051AS  24034.80475764 -.00001499  00000-0 -76108-4 0  9990,2 52576  53.2199 312.8299 0001615  99.3904 260.7271 15.08824828 96182,6917.927,95.439,540.909,538.675,0.0
52576.0,STARLINK-3932,PAYLOAD,2024-02-03 22:29:37,15.08825489,0.0001738,53.22,312.2354,103.3499,256.7687,-6.9334e-05,-1.391e-05,0.0,0 STARLINK-3932,1 52576U 22051AS  24034.93723781 -.00001391  00000-0 -69334-4 0  9993,2 52576  53.2200 312.2354 0001738 103.3499 256.7687 15.08825489 96137,6917.925,95.438,540.992,538.587,0.0
52576.0,STARLINK-3932,PAYLOAD,2024-02-04 04:51:09,15.08829625,0.0001554,53.219,311.0385,94.6114,265.5056,-6.5026e-05,-1.322e-05,0.0,0 STARLINK-3932,1 52576U 22051AS  24035.20219677 -.00001322  00000-0 -65026-4 0  9996,2 52576  53.2190 311.0385 0001554  94.6114 265.5056 15.08829625 96176,6917.912,95.438,540.852,538.702,0.0
52576.0,STARLINK-3932,PAYLOAD,2024-02-04 17:34:13,15.08842269,0.0001166,53.2181,308.6645,90.5036,269.6089,0.0001264,1.725e-05,0.0,0 STARLINK-3932,1 52576U 22051AS  24035.73210638  .00001725  00000-0  12640-3 0  9990,2 52576  53.2181 308.6645 0001166  90.5036 269.6089 15.08842269 96321,6917.873,95.437,540.545,538.932,0.0
52576.0,STARLINK-3932,PAYLOAD,2024-02-04 22:20:22,15.08845113,0.0001347,53.2184,307.7758,85.7377,274.3769,0.00012911,1.768e-05,0.0,0 STARLINK-3932,1 52576U 22051AS  24035.93082075  .00001768  00000-0  12911-3 0  9992,2 52576  53.2184 307.7758 0001347  85.7377 274.3769 15.08845113 96288,6917.865,95.437,540.662,538.798,0.0
52576.0,STARLINK-3932,PAYLOAD,2024-02-05 01:31:08,15.08850908,0.0001742,53.219,307.1803,71.1306,288.9875,0.0001886,2.716e-05,0.0,0 STARLINK-3932,1 52576U 22051AS  24036.06329660  .00002716  00000-0  18860-3 0  9994,2 52576  53.2190 307.1803 0001742  71.1306 288.9875 15.08850908 96377,6917.847,95.437,540.917,538.507,0.0
52576.0,STARLINK-3932,PAYLOAD,2024-02-05 11:03:27,15.08842261,0.0001582,53.2196,305.3912,86.4272,273.6901,0.00019084,2.751e-05,0.0,0 STARLINK-3932,1 52576U 22051AS  24036.46073951  .00002751  00000-0  19084-3 0  9995,2 52576  53.2196 305.3912 0001582  86.4272 273.6901 15.08842261 96438,6917.873,95.437,540.833,538.644,0.0
52576.0,STARLINK-3932,PAYLOAD,2024-02-05 22:11:10,15.08837205,0.0001698,53.2184,303.3086,82.3213,277.7971,8.9212e-05,1.132e-05,0.0,0 STARLINK-3932,1 52576U 22051AS  24036.92442778  .00001132  00000-0  89212-4 0  9996,2 52576  53.2184 303.3086 0001698  82.3213 277.7971 15.08837205 96437,6917.889,95.438,540.929,538.579,0.0
52576.0,STARLINK-3932,PAYLOAD,2024-02-06 02:57:19,15.08842227,0.0001778,53.2193,302.4153,83.7721,276.3474,0.00013179,1.81e-05,0.0,0 STARLINK-3932,1 52576U 22051AS  24037.12314313  .00001810  00000-0  13179-3 0  9993,2 52576  53.2193 302.4153 0001778  83.7721 276.3474 15.08842227 96534,6917.874,95.437,540.969,538.509,0.0
52576.0,STARLINK-3932,PAYLOAD,2024-02-06 22:01:56,15.0885501,0.0001392,53.2177,298.8462,93.3069,266.8082,-0.00013219,-2.392e-05,0.0,0 STARLINK-3932,1 52576U 22051AS  24037.91801800 -.00002392  00000-0 -13219-3 0  9995,2 52576  53.2177 298.8462 0001392  93.3069 266.8082 15.08855010 96589,6917.835,95.437,540.662,538.737,0.0
52576.0,STARLINK-3932,PAYLOAD,2024-02-07 10:45:01,15.08852347,0.0001392,53.2169,296.4696,88.2382,271.877,-0.00012598,-2.293e-05,0.0,0 STARLINK-3932,1 52576U 22051AS  24038.44793560 -.00002293  00000-0 -12598-3 0  9996,2 52576  53.2169 296.4696 0001392  88.2382 271.8770 15.08852347 96731,6917.843,95.437,540.671,538.745,0.0
52576.0,STARLINK-3932,PAYLOAD,2024-02-07 21:52:44,15.08833674,0.0001662,53.2181,294.3856,95.8906,264.2276,-2.1401e-05,-6.29e-06,0.0,0 STARLINK-3932,1 52576U 22051AS  24038.91162552 -.00000629  00000-0 -21401-4 0  9994,2 52576  53.2181 294.3856 0001662  95.8906 264.2276 15.08833674 96735,6917.9,95.438,540.914,538.615,0.0
52576.0,STARLINK-3932,PAYLOAD,2024-02-08 02:38:53,15.08838404,0.0001563,53.2187,293.4919,94.7313,265.3858,-6.4788e-05,-1.319e-05,0.0,0 STARLINK-3932,1 52576U 22051AS  24039.11034436 -.00001319  00000-0 -64788-4 0  9998,2 52576  53.2187 293.4919 0001563  94.7313 265.3858 15.08838404 96836,6917.885,95.438,540.832,538.669,0.0
52576.0,STARLINK-3932,PAYLOAD,2024-02-08 21:43:31,15.08842628,0.0001586,53.2182,289.9242,110.128,249.9883,-4.3337e-05,-9.78e-06,0.0,0 STARLINK-3932,1 52576U 22051AS  24039.90522289 -.00000978  00000-0 -43337-4 0  9990,2 52576  53.2182 289.9242 0001586 110.1280 249.9883 15.08842628 96885,6917.872,95.437,540.835,538.64,0.0
52576.0,STARLINK-3932,PAYLOAD,2024-02-08 23:18:54,15.0883283,0.0001572,53.2183,289.6267,113.4156,246.7001,0.00011631,1.563e-05,0.0,0 STARLINK-3932,1 52576U 22051AS  24039.97146266  .00001563  00000-0  11631-3 0  9994,2 52576  53.2183 289.6267 0001572 113.4156 246.7001 15.08832830 96895,6917.902,95.438,540.855,538.68,0.0
52576.0,STARLINK-3932,PAYLOAD,2024-02-09 19:58:55,15.08837101,0.0001392,53.2174,285.7628,102.9853,257.1295,0.00015642,2.202e-05,0.0,0 STARLINK-3932,1 52576U 22051AS  24040.83258147  .00002202  00000-0  15642-3 0  9990,2 52576  53.2174 285.7628 0001392 102.9853 257.1295 15.08837101 97090,6917.889,95.438,540.717,538.791,0.0
52576.0,STARLINK-3932,PAYLOAD,2024-02-09 23:09:41,15.08843893,0.0001448,53.2176,285.1686,106.7206,253.3945,9.9919e-05,1.303e-05,0.0,0 STARLINK-3932,1 52576U 22051AS  24040.96505960  .00001303  00000-0  99919-4 0  9993,2 52576  53.2176 285.1686 0001448 106.7206 253.3945 15.08843893 97046,6917.868,95.437,540.735,538.732,0.0
52576.0,STARLINK-3932,PAYLOAD,2024-02-10 21:25:05,15.08838973,0.0001444,53.2175,281.0088,105.6586,254.4565,-2.5077e-05,-6.87e-06,0.0,0 STARLINK-3932,1 52576U 22051AS  24041.89242948 -.00000687  00000-0 -25077-4 0  9990,2 52576  53.2175 281.0088 0001444 105.6586 254.4565 15.08838973 97257,6917.884,95.438,540.747,538.75,0.0
